     2.100          NAVIGATION                              RINEX VERSION / TYPE
fic2rin                                 11/04/2017 00:10:26 PGM / RUN BY / DATE
                                                            END OF HEADER
20 17 11  3 12  0  0.0  .491660553962D-03  .113686837722D-11  .000000000000D+00
     .750000000000D+02 -.603437500000D+02  .579667002600D-08  .294704862722D+01
    -.311248004436D-05  .464036606718D-02  .535696744919D-05  .515374632454D+04
     .475200000000D+06  .145286321640D-06  .194846747134D+01  .353902578354D-07
     .927115543524D+00  .257218750000D+03  .170634673480D+01 -.875215027648D-08
    -.617882880159D-09  .100000000000D+01  .197300000000D+04  .000000000000D+00
     .240000000000D+01  .000000000000D+00 -.838190317154D-08  .750000000000D+02
     .468006000000D+06  .400000000000D+01
21 17 11  3 12  0  0.0 -.465490855277D-03  .341060513165D-11  .000000000000D+00
     .790000000000D+02  .560312500000D+02  .560523348047D-08  .970823100165D-01
     .309199094772D-05  .240394251887D-01  .669248402119D-05  .515356702805D+04
     .475200000000D+06 -.324100255966D-06  .959469445616D+00 -.279396772385D-07
     .941249908368D+00  .245687500000D+03 -.162792196263D+01 -.909145012396D-08
     .544308386915D-09  .100000000000D+01  .197300000000D+04  .000000000000D+00
     .240000000000D+01  .000000000000D+00 -.977888703346D-08  .790000000000D+02
     .468006000000D+06  .400000000000D+01
22 17 11  3 12  0  0.0 -.176596455276D-03 -.127329258248D-10  .000000000000D+00
     .470000000000D+02 -.671875000000D+02  .577524056195D-08 -.295827679704D+01
    -.352226197720D-05  .716218154412D-02  .527128577232D-05  .515368008614D+04
     .475200000000D+06  .141561031342D-06  .199917103578D+01 -.745058059692D-08
     .923854264638D+00  .254875000000D+03 -.166222080553D+01 -.865714631918D-08
    -.546808491054D-09  .100000000000D+01  .197300000000D+04  .000000000000D+00
     .240000000000D+01  .000000000000D+00 -.176951289177D-07  .470000000000D+02
     .468006000000D+06  .400000000000D+01
23 17 11  3 12  0  0.0 -.218496192247D-03 -.227373675443D-12  .000000000000D+00
     .490000000000D+02  .440312500000D+02  .446197157331D-08  .260518905016D+01
     .212527811527D-05  .118598616682D-01  .133980065584D-04  .515366547012D+04
     .475200000000D+06 -.428408384323D-07  .308631960747D+01 -.186264514923D-06
     .944482206846D+00  .110656250000D+03 -.241648012270D+01 -.779711049523D-08
    -.149649090628D-09  .100000000000D+01  .197300000000D+04  .000000000000D+00
     .240000000000D+01  .000000000000D+00 -.204890966415D-07  .490000000000D+02
     .468006000000D+06  .400000000000D+01
25 17 11  3 12  0  0.0 -.483411829919D-03 -.625277607469D-11  .000000000000D+00
     .770000000000D+02 -.111156250000D+03  .451554523344D-08  .105366077789D+00
    -.582076609135D-05  .664586434141D-02  .454299151897D-05  .515373051834D+04
     .475200000000D+06  .335276126862D-07 -.108782140136D+01  .149011611938D-06
     .975814209459D+00  .303562500000D+03  .811318374141D+00 -.842213653008D-08
    -.430375069706D-09  .100000000000D+01  .197300000000D+04  .000000000000D+00
     .340000000000D+01  .000000000000D+00  .558793544769D-08  .770000000000D+02
     .468006000000D+06  .400000000000D+01
26 17 11  3 12  0  0.0 -.375307165086D-03  .130739863380D-10  .000000000000D+00
     .470000000000D+02 -.110906250000D+03  .484805908398D-08 -.389823310986D+00
    -.577047467232D-05  .215996743646D-02  .374577939510D-05  .515355408287D+04
     .475200000000D+06  .111758708954D-06 -.110609289415D+01 -.260770320892D-07
     .957476433320D+00  .303406250000D+03 -.877452002655D-01 -.855107047212D-08
    -.396802242692D-09  .100000000000D+01  .197300000000D+04  .000000000000D+00
     .240000000000D+01  .000000000000D+00  .745058059692D-08  .470000000000D+02
     .468006000000D+06  .400000000000D+01
27 17 11  3 12  0  0.0  .344019383192D-03  .386535248253D-11  .000000000000D+00
     .410000000000D+02 -.492187500000D+02  .390194824609D-08 -.226033391427D+01
    -.268593430519D-05  .502001494169D-02  .135712325573D-04  .515367768860D+04
     .475200000000D+06  .167638063431D-07 -.485158553030D-01 -.949949026108D-07
     .976499890866D+00  .127125000000D+03  .377251892707D+00 -.758817322073D-08
     .266082511976D-09  .100000000000D+01  .197300000000D+04  .000000000000D+00
     .240000000000D+01  .000000000000D+00  .186264514923D-08  .410000000000D+02
     .468006000000D+06  .400000000000D+01
28 17 11  3 12  0  0.0  .659431796521D-03  .329691829393D-11  .000000000000D+00
     .720000000000D+02 -.106281250000D+03  .414695845175D-08 -.139691807515D+01
    -.506639480591D-05  .199843671871D-01  .600889325142D-05  .515365961838D+04
     .475200000000D+06 -.186264514923D-06 -.100725221804D+01  .497326254845D-06
     .987352058559D+00  .277468750000D+03 -.155635375876D+01 -.812748139937D-08
    -.387873299337D-09  .100000000000D+01  .197300000000D+04  .000000000000D+00
     .240000000000D+01  .000000000000D+00 -.111758708954D-07  .720000000000D+02
     .468006000000D+06  .400000000000D+01
29 17 11  3 12  0  0.0  .543015077710D-03 -.477484718431D-11  .000000000000D+00
     .106000000000D+03 -.315937500000D+02  .380265839599D-08 -.111349362116D+01
    -.152178108692D-05  .466087250970D-03  .147521495819D-04  .515379000473D+04
     .475200000000D+06  .167638063431D-07  .146497201625D-01  .149011611938D-07
     .982857103783D+00  .108312500000D+03  .103001988714D+01 -.757710133097D-08
     .339657005220D-09  .100000000000D+01  .197300000000D+04  .000000000000D+00
     .240000000000D+01  .000000000000D+00 -.102445483208D-07  .106000000000D+03
     .468006000000D+06  .400000000000D+01
30 17 11  3 12  0  0.0  .130514614284D-03 -.250111042988D-11  .000000000000D+00
     .710000000000D+02  .925000000000D+02  .508414034628D-08  .115013862771D+01
     .488571822643D-05  .303319853265D-02  .263005495071D-05  .515360919189D+04
     .475200000000D+06 -.130385160446D-07 -.208253806895D+01  .111758708954D-06
     .946267961687D+00  .320593750000D+03 -.305433176113D+01 -.864071706341D-08
     .331799535068D-09  .100000000000D+01  .197300000000D+04  .000000000000D+00
     .240000000000D+01  .000000000000D+00  .372529029846D-08  .710000000000D+02
     .468006000000D+06  .400000000000D+01
31 17 11  3 12  0  0.0  .164577271789D-03 -.250111042988D-11  .000000000000D+00
     .390000000000D+02  .970625000000D+02  .464447917549D-08  .907444414108D+00
     .512227416039D-05  .869464653078D-02  .329129397869D-05  .515354655838D+04
     .475200000000D+06  .117346644402D-06 -.210749101289D+01  .633299350739D-07
     .965311357344D+00  .313750000000D+03 -.230288786784D+00 -.846963850873D-08
     .401088135502D-09  .100000000000D+01  .197300000000D+04  .000000000000D+00
     .240000000000D+01  .000000000000D+00 -.135041773319D-07  .390000000000D+02
     .468006000000D+06  .400000000000D+01
32 17 11  3 12  0  0.0 -.519972760230D-03 -.363797880709D-11  .000000000000D+00
     .400000000000D+02  .454375000000D+02  .408338437506D-08 -.163116503696D+01
     .245496630669D-05  .147919671144D-02  .146515667439D-04  .515361379433D+04
     .475200000000D+06  .558793544769D-08  .308998038734D+01 -.132247805595D-06
     .958085741625D+00  .989375000000D+02 -.260991245568D+01 -.774032241550D-08
    -.182150444440D-09  .100000000000D+01  .197300000000D+04  .000000000000D+00
     .240000000000D+01  .000000000000D+00  .465661287308D-09  .400000000000D+02
     .468006000000D+06  .400000000000D+01
10 17 11  3 11 59 44.0  .102994497865D-03  .807176547823D-11  .000000000000D+00
     .400000000000D+02 -.652187500000D+02  .495663503517D-08 -.205294135050D+00
    -.359863042831D-05  .291017780546D-02  .648945569992D-05  .515366283989D+04
     .475184000000D+06  .614672899246D-07  .204749921625D+01  .298023223877D-07
     .960113271474D+00  .254062500000D+03 -.288647674845D+01 -.837463455143D-08
    -.737173563381D-09  .100000000000D+01  .197300000000D+04  .000000000000D+00
     .240000000000D+01  .000000000000D+00  .186264514923D-08  .400000000000D+02
     .470856000000D+06  .400000000000D+01
25 17 11  3 11 59 44.0 -.483411364257D-03 -.625277607469D-11  .000000000000D+00
     .440000000000D+02 -.111156250000D+03  .451554523344D-08  .103032438183D+00
    -.582076609135D-05  .664587120991D-02  .454299151897D-05  .515373052216D+04
     .475184000000D+06  .335276126862D-07 -.108782127409D+01  .149011611938D-06
     .975814241643D+00  .303562500000D+03  .811318358049D+00 -.842213653008D-08
    -.430017911972D-09  .100000000000D+01  .197300000000D+04  .000000000000D+00
     .240000000000D+01  .000000000000D+00  .558793544769D-08  .440000000000D+02
     .470886000000D+06  .400000000000D+01
10 17 11  3 13 59 44.0  .103052705526D-03  .807176547823D-11  .000000000000D+00
     .430000000000D+02 -.592187500000D+02  .502735226654D-08  .844760280594D+00
    -.302866101265D-05  .291087012738D-02  .634975731373D-05  .515366432571D+04
     .482384000000D+06  .596046447754D-07  .204743864267D+01 -.745058059692D-08
     .960107877695D+00  .254187500000D+03 -.288634037084D+01 -.841106464032D-08
    -.720029992139D-09  .100000000000D+01  .197300000000D+04  .000000000000D+00
     .240000000000D+01  .000000000000D+00  .186264514923D-08  .430000000000D+02
     .475206000000D+06  .400000000000D+01
25 17 11  3 13 59 44.0 -.483456533402D-03 -.625277607469D-11  .000000000000D+00
     .450000000000D+02 -.107312500000D+03  .442768443083D-08  .115316131489D+01
    -.571459531784D-05  .664637552109D-02  .444613397121D-05  .515373141670D+04
     .482384000000D+06 -.540167093277D-07 -.108788152730D+01  .109896063805D-06
     .975810919356D+00  .301062500000D+03  .811334575959D+00 -.839499254228D-08
    -.480377152494D-09  .100000000000D+01  .197300000000D+04  .000000000000D+00
     .240000000000D+01  .000000000000D+00  .558793544769D-08  .450000000000D+02
     .475206000000D+06  .400000000000D+01
